[{"OBJECT_NAME":"STARLINK-3655","OBJECT_ID":"2022-025AD","EPOCH":"2026-03-09T11:29:59.929440","MEAN_MOTION":15.08842065,"ECCENTRICITY":0.00015684,"INCLINATION":53.2183,"RA_OF_ASC_NODE":40.0696,"ARG_OF_PERICENTER":114.8079,"MEAN_ANOMALY":245.3077,"EPHEMERIS_TYPE":0,"CLASSIFICATION_TYPE":"U","NORAD_CAT_ID":51983,"ELEMENT_SET_NO":999,"REV_AT_EPOCH":22102,"BSTAR":3.3744514e-5,"MEAN_MOTION_DOT":2.49e-6,"MEAN_MOTION_DDOT":0},{"OBJECT_NAME":"COSMOS 375 DEB","OBJECT_ID":"1970-091L","EPOCH":"2026-03-09T05:59:52.295712","MEAN_MOTION":14.07198704,"ECCENTRICITY":0.05399699,"INCLINATION":62.7886,"RA_OF_ASC_NODE":40.4218,"ARG_OF_PERICENTER":70.6191,"MEAN_ANOMALY":295.2401,"EPHEMERIS_TYPE":0,"CLASSIFICATION_TYPE":"U","NORAD_CAT_ID":4634,"ELEMENT_SET_NO":999,"REV_AT_EPOCH":73030,"BSTAR":0.001442548,"MEAN_MOTION_DOT":9.393e-5,"MEAN_MOTION_DDOT":0}]
